{"type": "FeatureCollection", "features": [ {"type": "Feature", "properties": {"norad_id": 66618, "name": "STARLINK-35970", "group": "last-30-days", "lat": 36.85330278326136, "lon": -146.6306195419991, "alt_km": 413.32636585250293, "timestamp": "2025-12-14T09:36:21.779276+00:00", "meta": {"OBJECT_NAME": "STARLINK-35970", "OBJECT_ID": "2025-271B", "EPOCH": "2025-12-13T14:00:03.000384", "MEAN_MOTION": 15.49305683, "ECCENTRICITY": 5.96e-05, "INCLINATION": 53.1602, "RA_OF_ASC_NODE": 183.0861, "ARG_OF_PERICENTER": 77.1996, "MEAN_ANOMALY": 92.4907, "EPHEMERIS_TYPE": 0, "CLASSIFICATION_TYPE": "U", "NORAD_CAT_ID": 66618, "ELEMENT_SET_NO": 999, "REV_AT_EPOCH": 437, "BSTAR": 0.0012661447, "MEAN_MOTION_DOT": 0.000706, "MEAN_MOTION_DDOT": 0}, "tle": {"line1": "1 66618U 25271B   25347.58336806  .00070600  00000+0  12661-2 0  9994", "line2": "2 66618  53.1602 183.0861 0000596  77.1996  92.4907 15.49305683  4371"}}, "geometry": {"type": "Point", "coordinates": [-146.6306195419991, 36.85330278326136]}}, {"type": "Feature", "properties": {"norad_id": 66619, "name": "STARLINK-35951", "group": "last-30-days", "lat": 2.300316128114557, "lon": -178.99994915468034, "alt_km": 419.488233480467, "timestamp": "2025-12-14T09:36:21.779286+00:00", "meta": {"OBJECT_NAME": "STARLINK-35951", "OBJECT_ID": "2025-271C", "EPOCH": "2025-12-13T14:00:03.000384", "MEAN_MOTION": 15.49303574, "ECCENTRICITY": 8.551e-05, "INCLINATION": 53.1602, "RA_OF_ASC_NODE": 183.1816, "ARG_OF_PERICENTER": 150.6335, "MEAN_ANOMALY": 333.4011, "EPHEMERIS_TYPE": 0, "CLASSIFICATION_TYPE": "U", "NORAD_CAT_ID": 66619, "ELEMENT_SET_NO": 999, "REV_AT_EPOCH": 437, "BSTAR": 0.0014159652, "MEAN_MOTION_DOT": 0.00079088, "MEAN_MOTION_DDOT": 0}, "tle": {"line1": "1 66619U 25271C   25347.58336806  .00079088  00000+0  14160-2 0  9990", "line2": "2 66619  53.1602 183.1816 0000855 150.6335 333.4011 15.49303574  4376"}}, "geometry": {"type": "Point", "coordinates": [-178.99994915468034, 2.300316128114557]}}, {"type": "Feature", "properties": {"norad_id": 66620, "name": "STARLINK-35936", "group": "last-30-days", "lat": -2.317793498886653, "lon": 177.54866214983798, "alt_km": 419.7239275912325, "timestamp": "2025-12-14T09:36:21.779297+00:00", "meta": {"OBJECT_NAME": "STARLINK-35936", "OBJECT_ID": "2025-271D", "EPOCH": "2025-12-13T14:00:03.000384", "MEAN_MOTION": 15.49261473, "ECCENTRICITY": 7.482e-05, "INCLINATION": 53.1601, "RA_OF_ASC_NODE": 183.1946, "ARG_OF_PERICENTER": 80.3081, "MEAN_ANOMALY": 38.1078, "EPHEMERIS_TYPE": 0, "CLASSIFICATION_TYPE": "U", "NORAD_CAT_ID": 66620, "ELEMENT_SET_NO": 999, "REV_AT_EPOCH": 437, "BSTAR": 0.001228383, "MEAN_MOTION_DOT": 0.00068354, "MEAN_MOTION_DDOT": 0}, "tle": {"line1": "1 66620U 25271D   25347.58336806  .00068354  00000+0  12284-2 0  9991", "line2": "2 66620  53.1601 183.1946 0000748  80.3081  38.1078 15.49261473  4372"}}, "geometry": {"type": "Point", "coordinates": [177.54866214983798, -2.317793498886653]}}, {"type": "Feature", "properties": {"norad_id": 66621, "name": "STARLINK-35847", "group": "last-30-days", "lat": 39.14560616343451, "lon": -143.22010448462183, "alt_km": 412.91655524325506, "timestamp": "2025-12-14T09:36:21.779307+00:00", "meta": {"OBJECT_NAME": "STARLINK-35847", "OBJECT_ID": "2025-271E", "EPOCH": "2025-12-13T14:00:03.000384", "MEAN_MOTION": 15.4930441, "ECCENTRICITY": 6.185e-05, "INCLINATION": 53.1603, "RA_OF_ASC_NODE": 183.0784, "ARG_OF_PERICENTER": 66.8188, "MEAN_ANOMALY": 106.4064, "EPHEMERIS_TYPE": 0, "CLASSIFICATION_TYPE": "U", "NORAD_CAT_ID": 66621, "ELEMENT_SET_NO": 999, "REV_AT_EPOCH": 437, "BSTAR": 0.0012600906, "MEAN_MOTION_DOT": 0.00070254, "MEAN_MOTION_DDOT": 0}, "tle": {"line1": "1 66621U 25271E   25347.58336806  .00070254  00000+0  12601-2 0  9997", "line2": "2 66621  53.1603 183.0784 0000618  66.8188 106.4064 15.49304410  4370"}}, "geometry": {"type": "Point", "coordinates": [-143.22010448462183, 39.14560616343451]}}, {"type": "Feature", "properties": {"norad_id": 66622, "name": "STARLINK-35950", "group": "last-30-days", "lat": 3.8275911404771015, "lon": -177.85378440072034, "alt_km": 419.0550738624506, "timestamp": "2025-12-14T09:36:21.779317+00:00", "meta": {"OBJECT_NAME": "STARLINK-35950", "OBJECT_ID": "2025-271F", "EPOCH": "2025-12-13T14:00:03.000384", "MEAN_MOTION": 15.49266711, "ECCENTRICITY": 8.173e-05, "INCLINATION": 53.1602, "RA_OF_ASC_NODE": 183.1782, "ARG_OF_PERICENTER": 106.6087, "MEAN_ANOMALY": 19.4644, "EPHEMERIS_TYPE": 0, "CLASSIFICATION_TYPE": "U", "NORAD_CAT_ID": 66622, "ELEMENT_SET_NO": 999, "REV_AT_EPOCH": 437, "BSTAR": 0.0013001379, "MEAN_MOTION_DOT": 0.00072425, "MEAN_MOTION_DDOT": 0}, "tle": {"line1": "1 66622U 25271F   25347.58336806  .00072425  00000+0  13001-2 0  9995", "line2": "2 66622  53.1602 183.1782 0000817 106.6087  19.4644 15.49266711  4379"}}, "geometry": {"type": "Point", "coordinates": [-177.85378440072034, 3.8275911404771015]}}, {"type": "Feature", "properties": {"norad_id": 66623, "name": "STARLINK-35920", "group": "last-30-days", "lat": 6.8853849838073, "lon": -175.54338882952294, "alt_km": 418.5627851277586, "timestamp": "2025-12-14T09:36:21.779327+00:00", "meta": {"OBJECT_NAME": "STARLINK-35920", "OBJECT_ID": "2025-271G", "EPOCH": "2025-12-13T14:00:03.000384", "MEAN_MOTION": 15.49261627, "ECCENTRICITY": 0.00012845, "INCLINATION": 53.1603, "RA_OF_ASC_NODE": 183.1695, "ARG_OF_PERICENTER": 101.6538, "MEAN_ANOMALY": 28.2588, "EPHEMERIS_TYPE": 0, "CLASSIFICATION_TYPE": "U", "NORAD_CAT_ID": 66623, "ELEMENT_SET_NO": 999, "REV_AT_EPOCH": 437, "BSTAR": 0.0013837019, "MEAN_MOTION_DOT": 0.00077142, "MEAN_MOTION_DDOT": 0}, "tle": {"line1": "1 66623U 25271G   25347.58336806  .00077142  00000+0  13837-2 0  9994", "line2": "2 66623  53.1603 183.1695 0001284 101.6538  28.2588 15.49261627  4375"}}, "geometry": {"type": "Point", "coordinates": [-175.54338882952294, 6.8853849838073]}}, {"type": "Feature", "properties": {"norad_id": 66624, "name": "STARLINK-35927", "group": "last-30-days", "lat": 5.352541097911601, "lon": -176.70442227842437, "alt_km": 418.7889818872136, "timestamp": "2025-12-14T09:36:21.779339+00:00", "meta": {"OBJECT_NAME": "STARLINK-35927", "OBJECT_ID": "2025-271H", "EPOCH": "2025-12-13T14:00:03.000384", "MEAN_MOTION": 15.49260498, "ECCENTRICITY": 6.1e-05, "INCLINATION": 53.1602, "RA_OF_ASC_NODE": 183.1747, "ARG_OF_PERICENTER": 103.4943, "MEAN_ANOMALY": 24.5029, "EPHEMERIS_TYPE": 0, "CLASSIFICATION_TYPE": "U", "NORAD_CAT_ID": 66624, "ELEMENT_SET_NO": 999, "REV_AT_EPOCH": 437, "BSTAR": 0.0013066125, "MEAN_MOTION_DOT": 0.00072775, "MEAN_MOTION_DDOT": 0}, "tle": {"line1": "1 66624U 25271H   25347.58336806  .00072775  00000+0  13066-2 0  9996", "line2": "2 66624  53.1602 183.1747 0000610 103.4943  24.5029 15.49260498  4379"}}, "geometry": {"type": "Point", "coordinates": [-176.70442227842437, 5.352541097911601]}}, {"type": "Feature", "properties": {"norad_id": 66625, "name": "STARLINK-35929", "group": "last-30-days", "lat": 8.399128177566938, "lon": -174.38617334488563, "alt_km": 418.32084595347715, "timestamp": "2025-12-14T09:36:21.779351+00:00", "meta": {"OBJECT_NAME": "STARLINK-35929", "OBJECT_ID": "2025-271J", "EPOCH": "2025-12-13T14:00:03.000384", "MEAN_MOTION": 15.49267954, "ECCENTRICITY": 0.00012556, "INCLINATION": 53.1602, "RA_OF_ASC_NODE": 183.1654, "ARG_OF_PERICENTER": 99.9875, "MEAN_ANOMALY": 31.8319, "EPHEMERIS_TYPE": 0, "CLASSIFICATION_TYPE": "U", "NORAD_CAT_ID": 66625, "ELEMENT_SET_NO": 999, "REV_AT_EPOCH": 437, "BSTAR": 0.0011971932, "MEAN_MOTION_DOT": 0.00066608, "MEAN_MOTION_DDOT": 0}, "tle": {"line1": "1 66625U 25271J   25347.58336806  .00066608  00000+0  11972-2 0  9999", "line2": "2 66625  53.1602 183.1654 0001255  99.9875  31.8319 15.49267954  4373"}}, "geometry": {"type": "Point", "coordinates": [-174.38617334488563, 8.399128177566938]}}, {"type": "Feature", "properties": {"norad_id": 66626, "name": "STARLINK-35902", "group": "last-30-days", "lat": 9.930627412269587, "lon": -173.2027611258788, "alt_km": 418.1288214857268, "timestamp": "2025-12-14T09:36:21.779362+00:00", "meta": {"OBJECT_NAME": "STARLINK-35902", "OBJECT_ID": "2025-271K", "EPOCH": "2025-12-13T14:00:03.000384", "MEAN_MOTION": 15.49266825, "ECCENTRICITY": 6.285e-05, "INCLINATION": 53.1601, "RA_OF_ASC_NODE": 183.1619, "ARG_OF_PERICENTER": 107.9633, "MEAN_ANOMALY": 25.778, "EPHEMERIS_TYPE": 0, "CLASSIFICATION_TYPE": "U", "NORAD_CAT_ID": 66626, "ELEMENT_SET_NO": 999, "REV_AT_EPOCH": 437, "BSTAR": 0.0012086524, "MEAN_MOTION_DOT": 0.00067252, "MEAN_MOTION_DDOT": 0}, "tle": {"line1": "1 66626U 25271K   25347.58336806  .00067252  00000+0  12087-2 0  9994", "line2": "2 66626  53.1601 183.1619 0000628 107.9633  25.7780 15.49266825  4379"}}, "geometry": {"type": "Point", "coordinates": [-173.2027611258788, 9.930627412269587]}}, {"type": "Feature", "properties": {"norad_id": 66627, "name": "STARLINK-35904", "group": "last-30-days", "lat": 11.448353203974914, "lon": -172.0162613065796, "alt_km": 417.94580668136496, "timestamp": "2025-12-14T09:36:21.779374+00:00", "meta": {"OBJECT_NAME": "STARLINK-35904", "OBJECT_ID": "2025-271L", "EPOCH": "2025-12-13T14:00:03.000384", "MEAN_MOTION": 15.49267441, "ECCENTRICITY": 7.254e-05, "INCLINATION": 53.1601, "RA_OF_ASC_NODE": 183.1579, "ARG_OF_PERICENTER": 113.0143, "MEAN_ANOMALY": 22.6458, "EPHEMERIS_TYPE": 0, "CLASSIFICATION_TYPE": "U", "NORAD_CAT_ID": 66627, "ELEMENT_SET_NO": 999, "REV_AT_EPOCH": 421, "BSTAR": 0.0011757443, "MEAN_MOTION_DOT": 0.00065395, "MEAN_MOTION_DDOT": 0}, "tle": {"line1": "1 66627U 25271L   25347.58336806  .00065395  00000+0  11757-2 0  9994", "line2": "2 66627  53.1601 183.1579 0000725 113.0143  22.6458 15.49267441  4213"}}, "geometry": {"type": "Point", "coordinates": [-172.0162613065796, 11.448353203974914]}}]}